{
  "type": "FeatureCollection",
  "features": [
    {
      "type": "Feature",
      "properties": {
        "norad_id": 29857,
        "name": "FENGYUN 1C DEB",
        "group": "fengyun-1c-debris",
        "lat": 2.4682293665799855,
        "lon": 5.987213667048803,
        "alt_km": 995.4973011583625,
        "timestamp": "2025-12-26T11:25:45.466776+00:00",
        "meta_object_name": "FENGYUN 1C DEB",
        "meta_object_id": "1999-025FB",
        "meta_epoch": "2025-12-24T12:30:00.203616",
        "meta_mean_motion": 13.81919497,
        "meta_eccentricity": 0.01927413,
        "meta_inclination": 98.4222,
        "meta_ra_of_asc_node": 4.605,
        "meta_arg_of_pericenter": 262.1723,
        "meta_mean_anomaly": 95.7515,
        "meta_ephemeris_type": 0,
        "meta_classification_type": "U",
        "meta_norad_cat_id": 29857,
        "meta_element_set_no": 999,
        "meta_rev_at_epoch": 94938,
        "meta_bstar": 0.0012908448,
        "meta_mean_motion_dot": 1.556e-05,
        "meta_mean_motion_ddot": 0,
        "tle_line1": "1 29857U 99025FB  25358.52083569  .00001556  00000+0  12908-2 0  9995",
        "tle_line2": "2 29857  98.4222   4.6050 0192741 262.1723  95.7515 13.81919497949389"
      },
      "geometry": {
        "type": "Point",
        "coordinates": [
          5.987213667048803,
          2.4682293665799855
        ]
      }
    },
    {
      "type": "Feature",
      "properties": {
        "norad_id": 29858,
        "name": "FENGYUN 1C DEB",
        "group": "fengyun-1c-debris",
        "lat": 60.53031232117276,
        "lon": 85.01188893624213,
        "alt_km": 844.5879075730745,
        "timestamp": "2025-12-26T11:25:45.466785+00:00",
        "meta_object_name": "FENGYUN 1C DEB",
        "meta_object_id": "1999-025FC",
        "meta_epoch": "2025-12-25T12:47:50.080992",
        "meta_mean_motion": 13.77815797,
        "meta_eccentricity": 0.0197546,
        "meta_inclination": 99.2127,
        "meta_ra_of_asc_node": 100.7873,
        "meta_arg_of_pericenter": 30.3089,
        "meta_mean_anomaly": 35.444,
        "meta_ephemeris_type": 0,
        "meta_classification_type": "U",
        "meta_norad_cat_id": 29858,
        "meta_element_set_no": 999,
        "meta_rev_at_epoch": 94730,
        "meta_bstar": 0.0010093,
        "meta_mean_motion_dot": 1.125e-05,
        "meta_mean_motion_ddot": 0,
        "tle_line1": "1 29858U 99025FC  25359.53321853  .00001125  00000+0  10093-2 0  9994",
        "tle_line2": "2 29858  99.2127 100.7873 0197546  30.3089  35.4440 13.77815797947303"
      },
      "geometry": {
        "type": "Point",
        "coordinates": [
          85.01188893624213,
          60.53031232117276
        ]
      }
    },
    {
      "type": "Feature",
      "properties": {
        "norad_id": 29859,
        "name": "FENGYUN 1C DEB",
        "group": "fengyun-1c-debris",
        "lat": 29.483114240827717,
        "lon": 18.22385869419792,
        "alt_km": 786.88564473922,
        "timestamp": "2025-12-26T11:25:45.466794+00:00",
        "meta_object_name": "FENGYUN 1C DEB",
        "meta_object_id": "1999-025FD",
        "meta_epoch": "2025-12-26T01:57:27.324000",
        "meta_mean_motion": 13.74103723,
        "meta_eccentricity": 0.0294362,
        "meta_inclination": 98.3359,
        "meta_ra_of_asc_node": 193.124,
        "meta_arg_of_pericenter": 176.8779,
        "meta_mean_anomaly": 183.4301,
        "meta_ephemeris_type": 0,
        "meta_classification_type": "U",
        "meta_norad_cat_id": 29859,
        "meta_element_set_no": 999,
        "meta_rev_at_epoch": 94163,
        "meta_bstar": 0.0020952,
        "meta_mean_motion_dot": 2.661e-05,
        "meta_mean_motion_ddot": 0,
        "tle_line1": "1 29859U 99025FD  25360.08156625  .00002661  00000+0  20952-2 0  9991",
        "tle_line2": "2 29859  98.3359 193.1240 0294362 176.8779 183.4301 13.74103723941637"
      },
      "geometry": {
        "type": "Point",
        "coordinates": [
          18.22385869419792,
          29.483114240827717
        ]
      }
    },
    {
      "type": "Feature",
      "properties": {
        "norad_id": 29860,
        "name": "FENGYUN 1C DEB",
        "group": "fengyun-1c-debris",
        "lat": 71.3131031230786,
        "lon": -120.23576421957722,
        "alt_km": 1118.6949939648648,
        "timestamp": "2025-12-26T11:25:45.466803+00:00",
        "meta_object_name": "FENGYUN 1C DEB",
        "meta_object_id": "1999-025FE",
        "meta_epoch": "2025-12-26T02:29:47.433408",
        "meta_mean_motion": 13.77598649,
        "meta_eccentricity": 0.022155,
        "meta_inclination": 98.617,
        "meta_ra_of_asc_node": 32.7906,
        "meta_arg_of_pericenter": 307.0407,
        "meta_mean_anomaly": 113.8463,
        "meta_ephemeris_type": 0,
        "meta_classification_type": "U",
        "meta_norad_cat_id": 29860,
        "meta_element_set_no": 999,
        "meta_rev_at_epoch": 94323,
        "meta_bstar": 0.0022483,
        "meta_mean_motion_dot": 2.648e-05,
        "meta_mean_motion_ddot": 0,
        "tle_line1": "1 29860U 99025FE  25360.10402122  .00002648  00000+0  22483-2 0  9998",
        "tle_line2": "2 29860  98.6170  32.7906 0221550 307.0407 113.8463 13.77598649943237"
      },
      "geometry": {
        "type": "Point",
        "coordinates": [
          -120.23576421957722,
          71.3131031230786
        ]
      }
    },
    {
      "type": "Feature",
      "properties": {
        "norad_id": 29865,
        "name": "FENGYUN 1C DEB",
        "group": "fengyun-1c-debris",
        "lat": -9.733121688555878,
        "lon": -85.64792482338055,
        "alt_km": 648.9958430684383,
        "timestamp": "2025-12-26T11:25:45.466811+00:00",
        "meta_object_name": "FENGYUN 1C DEB",
        "meta_object_id": "1999-025FK",
        "meta_epoch": "2025-12-25T17:46:48.495648",
        "meta_mean_motion": 14.82732588,
        "meta_eccentricity": 0.01167524,
        "meta_inclination": 98.9206,
        "meta_ra_of_asc_node": 271.9884,
        "meta_arg_of_pericenter": 100.4162,
        "meta_mean_anomaly": 288.0981,
        "meta_ephemeris_type": 0,
        "meta_classification_type": "U",
        "meta_norad_cat_id": 29865,
        "meta_element_set_no": 999,
        "meta_rev_at_epoch": 951,
        "meta_bstar": 0.00066226419,
        "meta_mean_motion_dot": 5.958e-05,
        "meta_mean_motion_ddot": 0,
        "tle_line1": "1 29865U 99025FK  25359.74083907  .00005958  00000+0  66226-3 0  9998",
        "tle_line2": "2 29865  98.9206 271.9884 0116752 100.4162 288.0981 14.82732588  9510"
      },
      "geometry": {
        "type": "Point",
        "coordinates": [
          -85.64792482338055,
          -9.733121688555878
        ]
      }
    },
    {
      "type": "Feature",
      "properties": {
        "norad_id": 29866,
        "name": "FENGYUN 1C DEB",
        "group": "fengyun-1c-debris",
        "lat": -66.83917238863194,
        "lon": 5.17858331731966,
        "alt_km": 754.4485719425393,
        "timestamp": "2025-12-26T11:25:45.466820+00:00",
        "meta_object_name": "FENGYUN 1C DEB",
        "meta_object_id": "1999-025FL",
        "meta_epoch": "2025-12-25T22:53:12.290208",
        "meta_mean_motion": 14.6425528,
        "meta_eccentricity": 0.0195173,
        "meta_inclination": 98.0385,
        "meta_ra_of_asc_node": 345.3782,
        "meta_arg_of_pericenter": 173.0674,
        "meta_mean_anomaly": 243.6535,
        "meta_ephemeris_type": 0,
        "meta_classification_type": "U",
        "meta_norad_cat_id": 29866,
        "meta_element_set_no": 999,
        "meta_rev_at_epoch": 520,
        "meta_bstar": 0.00021378,
        "meta_mean_motion_dot": 1.431e-05,
        "meta_mean_motion_ddot": 0,
        "tle_line1": "1 29866U 99025FL  25359.95361447  .00001431  00000+0  21378-3 0  9991",
        "tle_line2": "2 29866  98.0385 345.3782 0195173 173.0674 243.6535 14.64255280  5204"
      },
      "geometry": {
        "type": "Point",
        "coordinates": [
          5.17858331731966,
          -66.83917238863194
        ]
      }
    },
    {
      "type": "Feature",
      "properties": {
        "norad_id": 29868,
        "name": "FENGYUN 1C DEB",
        "group": "fengyun-1c-debris",
        "lat": 63.47811598203717,
        "lon": -117.6878438473618,
        "alt_km": 752.099175527147,
        "timestamp": "2025-12-26T11:25:45.466829+00:00",
        "meta_object_name": "FENGYUN 1C DEB",
        "meta_object_id": "1999-025FN",
        "meta_epoch": "2025-12-26T01:29:38.768064",
        "meta_mean_motion": 14.78594244,
        "meta_eccentricity": 0.0195337,
        "meta_inclination": 97.9482,
        "meta_ra_of_asc_node": 45.6457,
        "meta_arg_of_pericenter": 320.8312,
        "meta_mean_anomaly": 111.3955,
        "meta_ephemeris_type": 0,
        "meta_classification_type": "U",
        "meta_norad_cat_id": 29868,
        "meta_element_set_no": 999,
        "meta_rev_at_epoch": 492,
        "meta_bstar": 0.00065174,
        "meta_mean_motion_dot": 6.517e-05,
        "meta_mean_motion_ddot": 0,
        "tle_line1": "1 29868U 99025FN  25360.06225426  .00006517  00000+0  65174-3 0  9995",
        "tle_line2": "2 29868  97.9482  45.6457 0195337 320.8312 111.3955 14.78594244  4920"
      },
      "geometry": {
        "type": "Point",
        "coordinates": [
          -117.6878438473618,
          63.47811598203717
        ]
      }
    }
  ]
}